[{"OBJECT_NAME":"STARLINK-6159","OBJECT_ID":"2023-061H","EPOCH":"2026-03-09T22:00:01.999584","MEAN_MOTION":15.12353303,"ECCENTRICITY":0.00022402,"INCLINATION":42.9999,"RA_OF_ASC_NODE":195.9266,"ARG_OF_PERICENTER":268.9214,"MEAN_ANOMALY":47.6855,"EPHEMERIS_TYPE":0,"CLASSIFICATION_TYPE":"U","NORAD_CAT_ID":56381,"ELEMENT_SET_NO":999,"REV_AT_EPOCH":572,"BSTAR":0.0040805749,"MEAN_MOTION_DOT":0.00072519,"MEAN_MOTION_DDOT":0},{"OBJECT_NAME":"PIESAT-2 11","OBJECT_ID":"2024-241C","EPOCH":"2026-03-07T12:28:16.019904","MEAN_MOTION":15.13471753,"ECCENTRICITY":0.00017821,"INCLINATION":97.5216,"RA_OF_ASC_NODE":15.2882,"ARG_OF_PERICENTER":92.1609,"MEAN_ANOMALY":267.9826,"EPHEMERIS_TYPE":0,"CLASSIFICATION_TYPE":"U","NORAD_CAT_ID":62335,"ELEMENT_SET_NO":999,"REV_AT_EPOCH":6743,"BSTAR":0.00087235148,"MEAN_MOTION_DOT":0.00015561,"MEAN_MOTION_DDOT":0}]
